start=new Date('2022-10-26T00:00:00.000Z').valueOf();
sats=[{"COUNTRY_CODE":"US","RA_OF_ASC_NODE":"25.3872","SEMIMAJOR_AXIS":"6917.909","LAUNCH_DATE":"2022-05-14","NORAD_CAT_ID":"52642","CENTER_NAME":"EARTH","MEAN_MOTION":"15.08830717","SITE":"AFETR","TLE_LINE1":"1 52642U 22052AW  22298.66687393 -.00001328  00000-0 -65375-4 0  9997","ECCENTRICITY":"0.00024440","OBJECT_TYPE":"PAYLOAD","EPHEMERIS_TYPE":"0","MEAN_MOTION_DDOT":"0.0000000000000","PERIAPSIS":"538.083","REF_FRAME":"TEME","GP_ID":"216156675","APOAPSIS":"541.465","RCS_SIZE":"LARGE","BSTAR":"-0.00006537500000","INCLINATION":"53.2172","MEAN_ANOMALY":"330.8974","PERIOD":"95.438","TLE_LINE2":"2 52642  53.2172  25.3872 0002444  29.2154 330.8974 15.08830717 25286","ARG_OF_PERICENTER":"29.2154","TIME_SYSTEM":"UTC","ELEMENT_SET_NO":"999","MEAN_MOTION_DOT":"-0.00001328","OBJECT_ID":"2022-052AW","MEAN_ELEMENT_THEORY":"SGP4","FILE":"3633327","EPOCH":"2022-10-25T16:00:17.907552","REV_AT_EPOCH":"2528","CLASSIFICATION_TYPE":"U","DECAY_DATE":null,"OBJECT_NAME":"STARLINK-3971"},{"MEAN_MOTION_DOT":"0.00006474","TIME_SYSTEM":"UTC","ELEMENT_SET_NO":"999","ARG_OF_PERICENTER":"28.3793","PERIOD":"95.439","TLE_LINE2":"2 52643  53.2197  25.1932 0002391  28.3793 331.7329 15.08814175 25294","MEAN_ANOMALY":"331.7329","INCLINATION":"53.2197","OBJECT_NAME":"STARLINK-3963","DECAY_DATE":null,"CLASSIFICATION_TYPE":"U","REV_AT_EPOCH":"2529","EPOCH":"2022-10-25T17:03:53.850816","FILE":"3633327","MEAN_ELEMENT_THEORY":"SGP4","OBJECT_ID":"2022-052AX","CENTER_NAME":"EARTH","MEAN_MOTION":"15.08814175","SITE":"AFETR","TLE_LINE1":"1 52643U 22052AX  22298.71103994  .00006474  00000-0  42476-3 0  9995","LAUNCH_DATE":"2022-05-14","NORAD_CAT_ID":"52643","SEMIMAJOR_AXIS":"6917.959","COUNTRY_CODE":"US","RA_OF_ASC_NODE":"25.1932","RCS_SIZE":"LARGE","BSTAR":"0.00042476000000","GP_ID":"216157268","REF_FRAME":"TEME","APOAPSIS":"541.478","PERIAPSIS":"538.170","MEAN_MOTION_DDOT":"0.0000000000000","ECCENTRICITY":"0.00023910","OBJECT_TYPE":"PAYLOAD","EPHEMERIS_TYPE":"0"},{"OBJECT_ID":"2022-052AY","MEAN_ELEMENT_THEORY":"SGP4","FILE":"3633091","EPOCH":"2022-10-25T17:30:23.918400","REV_AT_EPOCH":"2567","CLASSIFICATION_TYPE":"U","DECAY_DATE":null,"OBJECT_NAME":"STARLINK-3985","MEAN_ANOMALY":"333.7101","INCLINATION":"53.2186","PERIOD":"95.439","TLE_LINE2":"2 52644  53.2186  25.1133 0002597  26.4023 333.7101 15.08817377 25678","ARG_OF_PERICENTER":"26.4023","TIME_SYSTEM":"UTC","ELEMENT_SET_NO":"999","MEAN_MOTION_DOT":"0.00013073","ECCENTRICITY":"0.00025970","OBJECT_TYPE":"PAYLOAD","EPHEMERIS_TYPE":"0","MEAN_MOTION_DDOT":"0.0000000000000","PERIAPSIS":"538.018","REF_FRAME":"TEME","GP_ID":"216127029","APOAPSIS":"541.611","BSTAR":"0.00083846000000","RCS_SIZE":"LARGE","COUNTRY_CODE":"US","RA_OF_ASC_NODE":"25.1133","SEMIMAJOR_AXIS":"6917.950","LAUNCH_DATE":"2022-05-14","NORAD_CAT_ID":"52644","MEAN_MOTION":"15.08817377","CENTER_NAME":"EARTH","TLE_LINE1":"1 52644U 22052AY  22298.72944350  .00013073  00000-0  83846-3 0  9995","SITE":"AFETR"},{"OBJECT_ID":"2022-052AZ","MEAN_ELEMENT_THEORY":"SGP4","FILE":"3633327","EPOCH":"2022-10-25T15:24:35.125344","REV_AT_EPOCH":"2528","CLASSIFICATION_TYPE":"U","OBJECT_NAME":"STARLINK-3973","DECAY_DATE":null,"MEAN_ANOMALY":"329.1127","INCLINATION":"53.2209","TLE_LINE2":"2 52645  53.2209  25.5053 0002529  31.0014 329.1127 15.08828960 25281","PERIOD":"95.438","ARG_OF_PERICENTER":"31.0014","ELEMENT_SET_NO":"999","TIME_SYSTEM":"UTC","MEAN_MOTION_DOT":"-0.00002813","OBJECT_TYPE":"PAYLOAD","EPHEMERIS_TYPE":"0","ECCENTRICITY":"0.00025290","MEAN_MOTION_DDOT":"0.0000000000000","PERIAPSIS":"538.030","APOAPSIS":"541.529","REF_FRAME":"TEME","GP_ID":"216157073","BSTAR":"-0.00015875000000","RCS_SIZE":"LARGE","RA_OF_ASC_NODE":"25.5053","COUNTRY_CODE":"US","SEMIMAJOR_AXIS":"6917.914","NORAD_CAT_ID":"52645","LAUNCH_DATE":"2022-05-14","SITE":"AFETR","TLE_LINE1":"1 52645U 22052AZ  22298.64207321 -.00002813  00000-0 -15875-3 0  9996","MEAN_MOTION":"15.08828960","CENTER_NAME":"EARTH"},{"FILE":"3633327","MEAN_ELEMENT_THEORY":"SGP4","OBJECT_ID":"2022-052BA","OBJECT_NAME":"STARLINK-3832","DECAY_DATE":null,"CLASSIFICATION_TYPE":"U","REV_AT_EPOCH":"2527","EPOCH":"2022-10-25T12:28:18.974784","ARG_OF_PERICENTER":"28.3836","PERIOD":"95.438","TLE_LINE2":"2 52646  53.2203  26.0525 0002601  28.3836 331.7297 15.08836981 25276","MEAN_ANOMALY":"331.7297","INCLINATION":"53.2203","MEAN_MOTION_DOT":"-0.00001055","TIME_SYSTEM":"UTC","ELEMENT_SET_NO":"999","MEAN_MOTION_DDOT":"0.0000000000000","ECCENTRICITY":"0.00026010","OBJECT_TYPE":"PAYLOAD","EPHEMERIS_TYPE":"0","RCS_SIZE":"LARGE","BSTAR":"-0.00004815700000","REF_FRAME":"TEME","GP_ID":"216157093","APOAPSIS":"541.554","PERIAPSIS":"537.955","SEMIMAJOR_AXIS":"6917.890","COUNTRY_CODE":"US","RA_OF_ASC_NODE":"26.0525","MEAN_MOTION":"15.08836981","CENTER_NAME":"EARTH","SITE":"AFETR","TLE_LINE1":"1 52646U 22052BA  22298.51966406 -.00001055  00000-0 -48157-4 0  9996","LAUNCH_DATE":"2022-05-14","NORAD_CAT_ID":"52646"},{"APOAPSIS":"541.490","GP_ID":"216127377","REF_FRAME":"TEME","PERIAPSIS":"538.027","BSTAR":"-0.00007133900000","RCS_SIZE":"LARGE","MEAN_MOTION_DDOT":"0.0000000000000","OBJECT_TYPE":"PAYLOAD","EPHEMERIS_TYPE":"0","ECCENTRICITY":"0.00025030","NORAD_CAT_ID":"52647","LAUNCH_DATE":"2022-05-14","TLE_LINE1":"1 52647U 22052BB  22298.36974071 -.00001424  00000-0 -71339-4 0  9995","SITE":"AFETR","MEAN_MOTION":"15.08835811","CENTER_NAME":"EARTH","SEMIMAJOR_AXIS":"6917.893","RA_OF_ASC_NODE":"26.7288","COUNTRY_CODE":"US","REV_AT_EPOCH":"2562","EPOCH":"2022-10-25T08:52:25.597344","OBJECT_NAME":"STARLINK-3846","DECAY_DATE":null,"CLASSIFICATION_TYPE":"U","OBJECT_ID":"2022-052BB","FILE":"3633091","MEAN_ELEMENT_THEORY":"SGP4","ELEMENT_SET_NO":"999","TIME_SYSTEM":"UTC","MEAN_MOTION_DOT":"-0.00001424","TLE_LINE2":"2 52647  53.2213  26.7288 0002503  31.5942 328.5200 15.08835811 25624","PERIOD":"95.438","INCLINATION":"53.2213","MEAN_ANOMALY":"328.5200","ARG_OF_PERICENTER":"31.5942"},{"ARG_OF_PERICENTER":"32.1371","PERIOD":"95.438","TLE_LINE2":"2 52648  53.2202  25.4718 0002613  32.1371 327.9780 15.08836576 25289","MEAN_ANOMALY":"327.9780","INCLINATION":"53.2202","MEAN_MOTION_DOT":"-0.00000616","TIME_SYSTEM":"UTC","ELEMENT_SET_NO":"999","FILE":"3633327","MEAN_ELEMENT_THEORY":"SGP4","OBJECT_ID":"2022-052BC","OBJECT_NAME":"STARLINK-3854","DECAY_DATE":null,"CLASSIFICATION_TYPE":"U","REV_AT_EPOCH":"2528","EPOCH":"2022-10-25T15:33:47.593728","SEMIMAJOR_AXIS":"6917.891","COUNTRY_CODE":"US","RA_OF_ASC_NODE":"25.4718","MEAN_MOTION":"15.08836576","CENTER_NAME":"EARTH","TLE_LINE1":"1 52648U 22052BC  22298.64846752 -.00000616  00000-0 -20572-4 0  9996","SITE":"AFETR","LAUNCH_DATE":"2022-05-14","NORAD_CAT_ID":"52648","MEAN_MOTION_DDOT":"0.0000000000000","ECCENTRICITY":"0.00026130","EPHEMERIS_TYPE":"0","OBJECT_TYPE":"PAYLOAD","RCS_SIZE":"LARGE","BSTAR":"-0.00002057200000","REF_FRAME":"TEME","GP_ID":"216157601","APOAPSIS":"541.563","PERIAPSIS":"537.948"},{"EPOCH":"2022-10-25T18:30:04.476960","REV_AT_EPOCH":"2531","CLASSIFICATION_TYPE":"U","DECAY_DATE":null,"OBJECT_NAME":"STARLINK-3868","OBJECT_ID":"2022-052BD","MEAN_ELEMENT_THEORY":"SGP4","FILE":"3633327","ELEMENT_SET_NO":"999","TIME_SYSTEM":"UTC","MEAN_MOTION_DOT":"0.00009096","MEAN_ANOMALY":"330.4052","INCLINATION":"53.2201","TLE_LINE2":"2 52649  53.2201  24.9289 0002278  29.7069 330.4052 15.08859767 25311","PERIOD":"95.436","ARG_OF_PERICENTER":"29.7069","PERIAPSIS":"538.109","APOAPSIS":"541.261","REF_FRAME":"TEME","GP_ID":"216156656","BSTAR":"0.00058856000000","RCS_SIZE":"LARGE","OBJECT_TYPE":"PAYLOAD","EPHEMERIS_TYPE":"0","ECCENTRICITY":"0.00022780","MEAN_MOTION_DDOT":"0.0000000000000","NORAD_CAT_ID":"52649","LAUNCH_DATE":"2022-05-14","SITE":"AFETR","TLE_LINE1":"1 52649U 22052BD  22298.77088515  .00009096  00000-0  58856-3 0  9990","MEAN_MOTION":"15.08859767","CENTER_NAME":"EARTH","RA_OF_ASC_NODE":"24.9289","COUNTRY_CODE":"US","SEMIMAJOR_AXIS":"6917.820"},{"REV_AT_EPOCH":"2544","EPOCH":"2022-10-25T17:06:35.796384","OBJECT_NAME":"STARLINK-3891","DECAY_DATE":null,"CLASSIFICATION_TYPE":"U","OBJECT_ID":"2022-052BE","FILE":"3633327","MEAN_ELEMENT_THEORY":"SGP4","ELEMENT_SET_NO":"999","TIME_SYSTEM":"UTC","MEAN_MOTION_DOT":"-0.00002523","TLE_LINE2":"2 52650  53.2194  15.1797 0002562  27.6006 332.5122 15.08831357 25444","PERIOD":"95.438","INCLINATION":"53.2194","MEAN_ANOMALY":"332.5122","ARG_OF_PERICENTER":"27.6006","APOAPSIS":"541.544","GP_ID":"216156676","REF_FRAME":"TEME","PERIAPSIS":"537.999","BSTAR":"-0.00014046000000","RCS_SIZE":"LARGE","MEAN_MOTION_DDOT":"0.0000000000000","OBJECT_TYPE":"PAYLOAD","EPHEMERIS_TYPE":"0","ECCENTRICITY":"0.00025620","NORAD_CAT_ID":"52650","LAUNCH_DATE":"2022-05-14","SITE":"AFETR","TLE_LINE1":"1 52650U 22052BE  22298.71291431 -.00002523  00000-0 -14046-3 0  9992","CENTER_NAME":"EARTH","MEAN_MOTION":"15.08831357","SEMIMAJOR_AXIS":"6917.907","RA_OF_ASC_NODE":"15.1797","COUNTRY_CODE":"US"},{"MEAN_MOTION":"15.08831786","CENTER_NAME":"EARTH","TLE_LINE1":"1 52656U 22053A   22298.68573186  .00000268  00000-0  34957-4 0  9991","SITE":"AFETR","LAUNCH_DATE":"2022-05-18","NORAD_CAT_ID":"52656","COUNTRY_CODE":"US","RA_OF_ASC_NODE":"280.3087","SEMIMAJOR_AXIS":"6917.905","BSTAR":"0.00003495700000","RCS_SIZE":"LARGE","PERIAPSIS":"538.623","GP_ID":"216157883","REF_FRAME":"TEME","APOAPSIS":"540.918","ECCENTRICITY":"0.00016590","OBJECT_TYPE":"PAYLOAD","EPHEMERIS_TYPE":"0","MEAN_MOTION_DDOT":"0.0000000000000","MEAN_MOTION_DOT":"0.00000268","TIME_SYSTEM":"UTC","ELEMENT_SET_NO":"999","ARG_OF_PERICENTER":"55.1984","INCLINATION":"53.2181","MEAN_ANOMALY":"304.9164","PERIOD":"95.438","TLE_LINE2":"2 52656  53.2181 280.3087 0001659  55.1984 304.9164 15.08831786 25277","CLASSIFICATION_TYPE":"U","DECAY_DATE":null,"OBJECT_NAME":"STARLINK-4004","EPOCH":"2022-10-25T16:27:27.232704","REV_AT_EPOCH":"2527","MEAN_ELEMENT_THEORY":"SGP4","FILE":"3633327","OBJECT_ID":"2022-053A"}];
